start=new Date('2023-05-18T00:00:00.000Z').valueOf();
sats=[{"RCS_SIZE":"LARGE","DECAY_DATE":null,"RA_OF_ASC_NODE":"249.8113","FILE":"3910633","MEAN_MOTION":"15.08840522","MEAN_MOTION_DOT":"0.00000732","SITE":"AFETR","CLASSIFICATION_TYPE":"U","GP_ID":"232044757","MEAN_MOTION_DDOT":"0.0000000000000","PERIOD":"95.438","LAUNCH_DATE":"2022-02-21","COUNTRY_CODE":"US","ARG_OF_PERICENTER":"107.2409","INCLINATION":"53.2172","ECCENTRICITY":"0.00010200","CENTER_NAME":"EARTH","REV_AT_EPOCH":"6851","MEAN_ANOMALY":"252.8695","OBJECT_TYPE":"PAYLOAD","OBJECT_NAME":"STARLINK-3448","PERIAPSIS":"539.038","TIME_SYSTEM":"UTC","SEMIMAJOR_AXIS":"6917.879","TLE_LINE2":"2 51728  53.2172 249.8113 0001020 107.2409 252.8695 15.08840522 68511","OBJECT_ID":"2022-016Q","APOAPSIS":"540.449","ELEMENT_SET_NO":"999","MEAN_ELEMENT_THEORY":"SGP4","REF_FRAME":"TEME","NORAD_CAT_ID":"51728","EPOCH":"2023-05-17T14:55:31.810080","EPHEMERIS_TYPE":"0","TLE_LINE1":"1 51728U 22016Q   23137.62189595  .00000732  00000-0  64090-4 0  9990","BSTAR":"0.00006409000000"},{"DECAY_DATE":null,"RCS_SIZE":"LARGE","RA_OF_ASC_NODE":"249.7658","FILE":"3910633","MEAN_MOTION":"15.08842466","MEAN_MOTION_DOT":"0.00000535","CLASSIFICATION_TYPE":"U","SITE":"AFETR","PERIOD":"95.437","MEAN_MOTION_DDOT":"0.0000000000000","GP_ID":"232044006","LAUNCH_DATE":"2022-02-21","INCLINATION":"53.2134","ECCENTRICITY":"0.00007440","ARG_OF_PERICENTER":"82.2261","COUNTRY_CODE":"US","CENTER_NAME":"EARTH","REV_AT_EPOCH":"6851","MEAN_ANOMALY":"277.8816","OBJECT_NAME":"STARLINK-3523","PERIAPSIS":"539.223","TIME_SYSTEM":"UTC","OBJECT_TYPE":"PAYLOAD","TLE_LINE2":"2 51729  53.2134 249.7658 0000744  82.2261 277.8816 15.08842466 68514","SEMIMAJOR_AXIS":"6917.873","OBJECT_ID":"2022-016R","APOAPSIS":"540.253","ELEMENT_SET_NO":"999","MEAN_ELEMENT_THEORY":"SGP4","EPOCH":"2023-05-17T15:11:25.510560","EPHEMERIS_TYPE":"0","TLE_LINE1":"1 51729U 22016R   23137.63293415  .00000535  00000-0  51676-4 0  9996","BSTAR":"0.00005167600000","REF_FRAME":"TEME","NORAD_CAT_ID":"51729"},{"MEAN_ELEMENT_THEORY":"SGP4","NORAD_CAT_ID":"51730","REF_FRAME":"TEME","EPHEMERIS_TYPE":"0","EPOCH":"2023-05-17T13:09:35.090784","BSTAR":"0.00138230000000","TLE_LINE1":"1 51730U 22016S   23137.54832281  .00021748  00000-0  13823-2 0  9997","APOAPSIS":"540.897","ELEMENT_SET_NO":"999","OBJECT_TYPE":"PAYLOAD","OBJECT_NAME":"STARLINK-3530","PERIAPSIS":"538.914","TIME_SYSTEM":"UTC","TLE_LINE2":"2 51730  53.2172 250.1387 0001433  95.9696 264.1459 15.08787696 68506","SEMIMAJOR_AXIS":"6918.040","OBJECT_ID":"2022-016S","ARG_OF_PERICENTER":"95.9696","COUNTRY_CODE":"US","INCLINATION":"53.2172","ECCENTRICITY":"0.00014330","CENTER_NAME":"EARTH","REV_AT_EPOCH":"6850","MEAN_ANOMALY":"264.1459","LAUNCH_DATE":"2022-02-21","SITE":"AFETR","CLASSIFICATION_TYPE":"U","GP_ID":"232044255","MEAN_MOTION_DDOT":"0.0000000000000","PERIOD":"95.441","MEAN_MOTION":"15.08787696","MEAN_MOTION_DOT":"0.00021748","RCS_SIZE":"LARGE","DECAY_DATE":null,"RA_OF_ASC_NODE":"250.1387","FILE":"3910633"},{"SITE":"AFETR","CLASSIFICATION_TYPE":"U","MEAN_MOTION_DDOT":"0.0000000000000","GP_ID":"232044507","PERIOD":"95.437","LAUNCH_DATE":"2022-02-21","RA_OF_ASC_NODE":"249.7896","DECAY_DATE":null,"RCS_SIZE":"LARGE","FILE":"3910633","MEAN_MOTION":"15.08844806","MEAN_MOTION_DOT":"0.00002417","APOAPSIS":"540.493","ELEMENT_SET_NO":"999","MEAN_ELEMENT_THEORY":"SGP4","REF_FRAME":"TEME","NORAD_CAT_ID":"51731","BSTAR":"0.00016984000000","TLE_LINE1":"1 51731U 22016T   23137.62557491  .00002417  00000-0  16984-3 0  9998","EPOCH":"2023-05-17T15:00:49.672224","EPHEMERIS_TYPE":"0","ARG_OF_PERICENTER":"92.6389","COUNTRY_CODE":"US","ECCENTRICITY":"0.00011020","INCLINATION":"53.2164","REV_AT_EPOCH":"6851","MEAN_ANOMALY":"267.4729","CENTER_NAME":"EARTH","OBJECT_TYPE":"PAYLOAD","TIME_SYSTEM":"UTC","PERIAPSIS":"538.968","OBJECT_NAME":"STARLINK-3514","OBJECT_ID":"2022-016T","SEMIMAJOR_AXIS":"6917.866","TLE_LINE2":"2 51731  53.2164 249.7896 0001102  92.6389 267.4729 15.08844806 68517"},{"CLASSIFICATION_TYPE":"U","SITE":"AFETR","GP_ID":"232045257","MEAN_MOTION_DDOT":"0.0000000000000","PERIOD":"95.438","LAUNCH_DATE":"2022-02-21","RA_OF_ASC_NODE":"249.8544","DECAY_DATE":null,"RCS_SIZE":"LARGE","FILE":"3910633","MEAN_MOTION":"15.08837033","MEAN_MOTION_DOT":"0.00000845","APOAPSIS":"540.587","ELEMENT_SET_NO":"999","MEAN_ELEMENT_THEORY":"SGP4","REF_FRAME":"TEME","NORAD_CAT_ID":"51732","TLE_LINE1":"1 51732U 22016U   23137.61085860  .00000845  00000-0  71164-4 0  9999","BSTAR":"0.00007116400000","EPOCH":"2023-05-17T14:39:38.183040","EPHEMERIS_TYPE":"0","ARG_OF_PERICENTER":"96.8057","COUNTRY_CODE":"US","ECCENTRICITY":"0.00012040","INCLINATION":"53.2165","REV_AT_EPOCH":"6965","MEAN_ANOMALY":"263.3072","CENTER_NAME":"EARTH","OBJECT_TYPE":"PAYLOAD","PERIAPSIS":"538.922","TIME_SYSTEM":"UTC","OBJECT_NAME":"STARLINK-3518","OBJECT_ID":"2022-016U","SEMIMAJOR_AXIS":"6917.889","TLE_LINE2":"2 51732  53.2165 249.8544 0001204  96.8057 263.3072 15.08837033 69657"},{"APOAPSIS":"540.379","ELEMENT_SET_NO":"999","MEAN_ELEMENT_THEORY":"SGP4","NORAD_CAT_ID":"51733","REF_FRAME":"TEME","TLE_LINE1":"1 51733U 22016V   23137.61917243  .00000720  00000-0  63286-4 0  9997","BSTAR":"0.00006328600000","EPOCH":"2023-05-17T14:51:36.497952","EPHEMERIS_TYPE":"0","COUNTRY_CODE":"US","ARG_OF_PERICENTER":"83.8401","ECCENTRICITY":"0.00009340","INCLINATION":"53.2165","MEAN_ANOMALY":"276.2697","REV_AT_EPOCH":"6851","CENTER_NAME":"EARTH","OBJECT_TYPE":"PAYLOAD","PERIAPSIS":"539.087","TIME_SYSTEM":"UTC","OBJECT_NAME":"STARLINK-3525","OBJECT_ID":"2022-016V","SEMIMAJOR_AXIS":"6917.868","TLE_LINE2":"2 51733  53.2165 249.8282 0000934  83.8401 276.2697 15.08844049 68510","SITE":"AFETR","CLASSIFICATION_TYPE":"U","GP_ID":"232043507","MEAN_MOTION_DDOT":"0.0000000000000","PERIOD":"95.437","LAUNCH_DATE":"2022-02-21","RA_OF_ASC_NODE":"249.8282","RCS_SIZE":"LARGE","DECAY_DATE":null,"FILE":"3910633","MEAN_MOTION":"15.08844049","MEAN_MOTION_DOT":"0.00000720"},{"APOAPSIS":"540.537","ELEMENT_SET_NO":"999","MEAN_ELEMENT_THEORY":"SGP4","BSTAR":"0.00028151000000","TLE_LINE1":"1 51734U 22016W   23137.53358144  .00004195  00000-0  28151-3 0  9999","EPOCH":"2023-05-17T12:48:21.436416","EPHEMERIS_TYPE":"0","REF_FRAME":"TEME","NORAD_CAT_ID":"51734","ECCENTRICITY":"0.00011270","INCLINATION":"53.2154","COUNTRY_CODE":"US","ARG_OF_PERICENTER":"74.4033","REV_AT_EPOCH":"6849","MEAN_ANOMALY":"285.7083","CENTER_NAME":"EARTH","TIME_SYSTEM":"UTC","PERIAPSIS":"538.978","OBJECT_NAME":"STARLINK-3450","OBJECT_TYPE":"PAYLOAD","OBJECT_ID":"2022-016W","TLE_LINE2":"2 51734  53.2154 250.1994 0001127  74.4033 285.7083 15.08835948 68495","SEMIMAJOR_AXIS":"6917.893","SITE":"AFETR","CLASSIFICATION_TYPE":"U","PERIOD":"95.438","MEAN_MOTION_DDOT":"0.0000000000000","GP_ID":"232043757","LAUNCH_DATE":"2022-02-21","RA_OF_ASC_NODE":"250.1994","DECAY_DATE":null,"RCS_SIZE":"LARGE","FILE":"3910633","MEAN_MOTION":"15.08835948","MEAN_MOTION_DOT":"0.00004195"},{"COUNTRY_CODE":"US","ARG_OF_PERICENTER":"97.1678","ECCENTRICITY":"0.00011420","INCLINATION":"53.2162","MEAN_ANOMALY":"262.9444","REV_AT_EPOCH":"6850","CENTER_NAME":"EARTH","OBJECT_TYPE":"PAYLOAD","PERIAPSIS":"538.957","TIME_SYSTEM":"UTC","OBJECT_NAME":"STARLINK-3517","OBJECT_ID":"2022-016X","TLE_LINE2":"2 51735  53.2162 250.1681 0001142  97.1678 262.9444 15.08839627 68500","SEMIMAJOR_AXIS":"6917.882","APOAPSIS":"540.537","ELEMENT_SET_NO":"999","MEAN_ELEMENT_THEORY":"SGP4","REF_FRAME":"TEME","NORAD_CAT_ID":"51735","BSTAR":"0.00006688700000","TLE_LINE1":"1 51735U 22016X   23137.54093709  .00000777  00000-0  66887-4 0  9995","EPOCH":"2023-05-17T12:58:56.964576","EPHEMERIS_TYPE":"0","RA_OF_ASC_NODE":"250.1681","RCS_SIZE":"LARGE","DECAY_DATE":null,"FILE":"3910633","MEAN_MOTION":"15.08839627","MEAN_MOTION_DOT":"0.00000777","CLASSIFICATION_TYPE":"U","SITE":"AFETR","MEAN_MOTION_DDOT":"0.0000000000000","GP_ID":"232045007","PERIOD":"95.438","LAUNCH_DATE":"2022-02-21"},{"APOAPSIS":"540.547","ELEMENT_SET_NO":"999","MEAN_ELEMENT_THEORY":"SGP4","EPHEMERIS_TYPE":"0","EPOCH":"2023-05-17T14:13:07.902912","BSTAR":"0.00010832000000","TLE_LINE1":"1 51736U 22016Y   23137.59245258  .00001437  00000-0  10832-3 0  9991","NORAD_CAT_ID":"51736","REF_FRAME":"TEME","INCLINATION":"53.2165","ECCENTRICITY":"0.00011780","COUNTRY_CODE":"US","ARG_OF_PERICENTER":"101.1910","CENTER_NAME":"EARTH","REV_AT_EPOCH":"6850","MEAN_ANOMALY":"258.9214","OBJECT_NAME":"STARLINK-3447","PERIAPSIS":"538.917","TIME_SYSTEM":"UTC","OBJECT_TYPE":"PAYLOAD","SEMIMAJOR_AXIS":"6917.867","TLE_LINE2":"2 51736  53.2165 249.9373 0001178 101.1910 258.9214 15.08844490 68506","OBJECT_ID":"2022-016Y","CLASSIFICATION_TYPE":"U","SITE":"AFETR","PERIOD":"95.437","MEAN_MOTION_DDOT":"0.0000000000000","GP_ID":"232044758","LAUNCH_DATE":"2022-02-21","DECAY_DATE":null,"RCS_SIZE":"LARGE","RA_OF_ASC_NODE":"249.9373","FILE":"3910633","MEAN_MOTION":"15.08844490","MEAN_MOTION_DOT":"0.00001437"},{"OBJECT_ID":"2022-016Z","SEMIMAJOR_AXIS":"6917.877","TLE_LINE2":"2 51737  53.2166 249.8857 0001164  97.3470 262.7655 15.08841038 68503","PERIAPSIS":"538.937","TIME_SYSTEM":"UTC","OBJECT_NAME":"STARLINK-3509","OBJECT_TYPE":"PAYLOAD","REV_AT_EPOCH":"6850","MEAN_ANOMALY":"262.7655","CENTER_NAME":"EARTH","ECCENTRICITY":"0.00011640","INCLINATION":"53.2166","ARG_OF_PERICENTER":"97.3470","COUNTRY_CODE":"US","TLE_LINE1":"1 51737U 22016Z   23137.60349653  .00000200  00000-0  30669-4 0  9996","BSTAR":"0.00003066900000","EPOCH":"2023-05-17T14:29:02.100192","EPHEMERIS_TYPE":"0","NORAD_CAT_ID":"51737","REF_FRAME":"TEME","MEAN_ELEMENT_THEORY":"SGP4","ELEMENT_SET_NO":"999","APOAPSIS":"540.547","MEAN_MOTION_DOT":"0.00000200","MEAN_MOTION":"15.08841038","FILE":"3910633","RA_OF_ASC_NODE":"249.8857","DECAY_DATE":null,"RCS_SIZE":"LARGE","LAUNCH_DATE":"2022-02-21","PERIOD":"95.437","MEAN_MOTION_DDOT":"0.0000000000000","GP_ID":"232044007","SITE":"AFETR","CLASSIFICATION_TYPE":"U"}];
